NORAD_CAT_ID,OBJECT_NAME,OBJECT_TYPE,EPOCH,MEAN_MOTION,ECCENTRICITY,INCLINATION,RA_OF_ASC_NODE,ARG_OF_PERICENTER,MEAN_ANOMALY,BSTAR,MEAN_MOTION_DOT,MEAN_MOTION_DDOT,TLE_LINE0,TLE_LINE1,TLE_LINE2,SEMIMAJOR_AXIS,PERIOD,APOGEE,PERIGEE,DECAYED
55758.0,STARLINK-5072,PAYLOAD,2023-06-08 13:21:20,14.98328748,0.0003504,70.0,258.6443,269.7415,90.3343,5.4105e-05,5.53e-06,0.0,0 STARLINK-5072,1 55758U 23028T   23159.55648421  .00000553  00000-0  54105-4 0  9992,2 55758  70.0000 258.6443 0003504 269.7415  90.3343 14.98328748 15481,6950.197,96.107,574.497,569.626,0.0
55758.0,STARLINK-5072,PAYLOAD,2023-06-08 16:33:36,14.98332285,0.0003481,70.0,258.3076,269.4171,90.6589,9.0519e-05,9.87e-06,0.0,0 STARLINK-5072,1 55758U 23028T   23159.69000077  .00000987  00000-0  90519-4 0  9996,2 55758  70.0000 258.3076 0003481 269.4171  90.6589 14.98332285 15509,6950.186,96.107,574.47,569.631,0.0
55758.0,STARLINK-5072,PAYLOAD,2023-06-09 13:23:20,14.98335448,0.0003506,69.9999,256.1197,269.2167,90.859,3.5296e-05,3.28e-06,0.0,0 STARLINK-5072,1 55758U 23028T   23160.55787890  .00000328  00000-0  35296-4 0  9998,2 55758  69.9999 256.1197 0003506 269.2167  90.8590 14.98335448 15636,6950.176,96.107,574.478,569.604,0.0
55758.0,STARLINK-5072,PAYLOAD,2023-06-09 16:35:36,14.98335725,0.0003498,70.0,255.783,269.272,90.8038,3.757e-05,3.55e-06,0.0,0 STARLINK-5072,1 55758U 23028T   23160.69139817  .00000355  00000-0  37570-4 0  9990,2 55758  70.0000 255.7830 0003498 269.2720  90.8038 14.98335725 15653,6950.175,96.107,574.471,569.609,0.0
55758.0,STARLINK-5072,PAYLOAD,2023-06-09 23:00:09,14.98328859,0.0003452,70.0,255.1096,269.4569,90.6195,-2.6613e-05,-4.11e-06,0.0,0 STARLINK-5072,1 55758U 23028T   23160.95844370 -.00000411  00000-0 -26613-4 0  9997,2 55758  70.0000 255.1096 0003452 269.4569  90.6195 14.98328859 15690,6950.196,96.107,574.461,569.662,0.0
55758.0,STARLINK-5072,PAYLOAD,2023-06-10 08:36:58,14.9832866,0.0003432,70.0,254.0998,268.9929,91.0837,-5.3491e-05,-7.31e-06,0.0,0 STARLINK-5072,1 55758U 23028T   23161.35900464 -.00000731  00000-0 -53491-4 0  9998,2 55758  70.0000 254.0998 0003432 268.9929  91.0837 14.98328660 15756,6950.197,96.107,574.447,569.677,0.0
55758.0,STARLINK-5072,PAYLOAD,2023-06-10 15:01:30,14.98328484,0.0003415,70.0002,253.4268,268.0827,91.9941,-4.9585e-05,-6.85e-06,0.0,0 STARLINK-5072,1 55758U 23028T   23161.62604466 -.00000685  00000-0 -49585-4 0  9998,2 55758  70.0002 253.4268 0003415 268.0827  91.9941 14.98328484 15793,6950.198,96.107,574.436,569.689,0.0
55758.0,STARLINK-5072,PAYLOAD,2023-06-10 23:02:10,14.98329908,0.000341,70.0003,252.5851,269.5913,90.4855,-3.9908e-05,-5.69e-06,0.0,0 STARLINK-5072,1 55758U 23028T   23161.95984358 -.00000569  00000-0 -39908-4 0  9994,2 55758  70.0003 252.5851 0003410 269.5913  90.4855 14.98329908 15845,6950.193,96.107,574.428,569.688,0.0
55758.0,STARLINK-5072,PAYLOAD,2023-06-11 11:51:14,14.98333558,0.0003455,70.0001,251.2385,269.1993,90.8771,-1.2695e-05,-2.45e-06,0.0,0 STARLINK-5072,1 55758U 23028T   23162.49391989 -.00000245  00000-0 -12695-4 0  9991,2 55758  70.0001 251.2385 0003455 269.1993  90.8771 14.98333558 15920,6950.182,96.107,574.448,569.646,0.0
55758.0,STARLINK-5072,PAYLOAD,2023-06-11 13:27:22,14.98333065,0.0003469,70.0001,251.0704,268.324,91.7522,-1.7975e-05,-3.08e-06,0.0,0 STARLINK-5072,1 55758U 23028T   23162.56068023 -.00000308  00000-0 -17975-4 0  9995,2 55758  70.0001 251.0704 0003469 268.3240  91.7522 14.98333065 15932,6950.183,96.107,574.459,569.637,0.0
55758.0,STARLINK-5072,PAYLOAD,2023-06-11 23:04:11,14.98331052,0.0003434,70.0003,250.0604,268.42,91.6566,7.3505e-06,-5e-08,0.0,0 STARLINK-5072,1 55758U 23028T   23162.96124019 -.00000005  00000-0  73505-5 0  9992,2 55758  70.0003 250.0604 0003434 268.4200  91.6566 14.98331052 15998,6950.19,96.107,574.441,569.668,0.0
55758.0,STARLINK-5072,PAYLOAD,2023-06-12 11:53:15,14.9832704,0.0003558,70.0,248.7143,270.1354,89.9397,1.0122e-05,2.8e-07,0.0,0 STARLINK-5072,1 55758U 23028T   23163.49532305  .00000028  00000-0  10122-4 0  9991,2 55758  70.0000 248.7143 0003558 270.1354  89.9397 14.98327040 16078,6950.202,96.107,574.54,569.594,0.0
55758.0,STARLINK-5072,PAYLOAD,2023-06-12 23:06:12,14.98326983,0.0003548,69.9999,247.5362,269.9273,90.1479,5.9814e-07,-8.6e-07,0.0,0 STARLINK-5072,1 55758U 23028T   23163.96264397 -.00000086  00000-0  59814-6 0  9994,2 55758  69.9999 247.5362 0003548 269.9273  90.1479 14.98326983 16145,6950.202,96.107,574.533,569.601,0.0
55758.0,STARLINK-5072,PAYLOAD,2023-06-13 05:30:44,14.98328191,0.00035,70.0,246.8632,270.0404,90.0354,-2.2252e-05,-3.59e-06,0.0,0 STARLINK-5072,1 55758U 23028T   23164.22968429 -.00000359  00000-0 -22252-4 0  9999,2 55758  70.0000 246.8632 0003500 270.0404  90.0354 14.98328191 16188,6950.198,96.107,574.496,569.631,0.0
55758.0,STARLINK-5072,PAYLOAD,2023-06-13 07:06:52,14.98327889,0.0003534,69.9999,246.6947,269.6881,90.3873,-2.0914e-05,-3.43e-06,0.0,0 STARLINK-5072,1 55758U 23028T   23164.29644434 -.00000343  00000-0 -20914-4 0  9999,2 55758  69.9999 246.6947 0003534 269.6881  90.3873 14.98327889 16192,6950.199,96.107,574.521,569.608,0.0
55758.0,STARLINK-5072,PAYLOAD,2023-06-14 05:32:45,14.98329807,0.0003554,69.9997,244.3375,268.6934,91.3818,4.2831e-05,4.18e-06,0.0,0 STARLINK-5072,1 55758U 23028T   23165.23108078  .00000418  00000-0  42831-4 0  9996,2 55758  69.9997 244.3375 0003554 268.6934  91.3818 14.98329807 16338,6950.193,96.107,574.529,569.588,0.0
55758.0,STARLINK-5072,PAYLOAD,2023-06-15 10:23:10,14.98329303,0.0003604,69.9995,241.3074,267.7514,92.3232,2.7356e-05,2.33e-06,0.0,0 STARLINK-5072,1 55758U 23028T   23166.43276092  .00000233  00000-0  27356-4 0  9991,2 55758  69.9995 241.3074 0003604 267.7514  92.3232 14.98329303 16511,6950.195,96.107,574.565,569.555,0.0
55758.0,STARLINK-5072,PAYLOAD,2023-06-15 13:35:26,14.98329675,0.0003587,69.9996,240.9711,266.2372,93.8377,1.6364e-05,1.02e-06,0.0,0 STARLINK-5072,1 55758U 23028T   23166.56628090  .00000102  00000-0  16364-4 0  9996,2 55758  69.9996 240.9711 0003587 266.2372  93.8377 14.98329675 16531,6950.194,96.107,574.552,569.566,0.0
55758.0,STARLINK-5072,PAYLOAD,2023-06-15 15:11:34,14.98329979,0.0003595,69.9996,240.8028,266.4559,93.6188,1.854e-05,1.28e-06,0.0,0 STARLINK-5072,1 55758U 23028T   23166.63304064  .00000128  00000-0  18540-4 0  9992,2 55758  69.9996 240.8028 0003595 266.4559  93.6188 14.98329979 16545,6950.193,96.107,574.557,569.559,0.0
55758.0,STARLINK-5072,PAYLOAD,2023-06-16 10:25:10,14.98336631,0.0003555,69.9995,238.7827,267.7547,92.3205,4.0047e-05,3.85e-06,0.0,0 STARLINK-5072,1 55758U 23028T   23167.43415414  .00000385  00000-0  40047-4 0  9995,2 55758  69.9995 238.7827 0003555 267.7547  92.3205 14.98336631 16666,6950.172,96.107,574.508,569.567,0.0
55758.0,STARLINK-5072,PAYLOAD,2023-06-16 12:01:18,14.98340178,0.0003469,69.9996,238.6142,267.304,92.7722,7.9625e-05,8.57e-06,0.0,0 STARLINK-5072,1 55758U 23028T   23167.50091033  .00000857  00000-0  79625-4 0  9998,2 55758  69.9996 238.6142 0003469 267.3040  92.7722 14.98340178 16674,6950.161,96.106,574.437,569.615,0.0
55758.0,STARLINK-5072,PAYLOAD,2023-06-16 13:37:25,14.98352203,0.0003375,70.0006,238.4469,267.0703,93.007,0.0002205,2.54e-05,0.0,0 STARLINK-5072,1 55758U 23028T   23167.56765876  .00002540  00000-0  22050-3 0  9997,2 55758  70.0006 238.4469 0003375 267.0703  93.0070 14.98352203 16681,6950.124,96.106,574.335,569.644,0.0
55758.0,STARLINK-5072,PAYLOAD,2023-06-16 15:13:33,14.98358136,0.0003355,70.0007,238.2788,264.3349,95.7427,0.00028369,3.296e-05,0.0,0 STARLINK-5072,1 55758U 23028T   23167.63441235  .00003296  00000-0  28369-3 0  9993,2 55758  70.0007 238.2788 0003355 264.3349  95.7427 14.98358136 16695,6950.106,96.105,574.303,569.639,0.0
55758.0,STARLINK-5072,PAYLOAD,2023-06-16 21:38:06,14.98340792,0.0003773,69.9995,237.6044,269.8061,90.2665,9.948e-05,1.094e-05,0.0,0 STARLINK-5072,1 55758U 23028T   23167.90146426  .00001094  00000-0  99480-4 0  9994,2 55758  69.9995 237.6044 0003773 269.8061  90.2665 14.98340792 16739,6950.16,96.106,574.647,569.402,0.0
55758.0,STARLINK-5072,PAYLOAD,2023-06-17 10:27:13,14.98318497,0.0003299,69.9995,236.2582,267.7597,92.3184,-0.0001358,-1.713e-05,0.0,0 STARLINK-5072,1 55758U 23028T   23168.43556728 -.00001713  00000-0 -13580-3 0  9999,2 55758  69.9995 236.2582 0003299 267.7597  92.3184 14.98318497 16810,6950.228,96.108,574.386,569.801,0.0
55758.0,STARLINK-5072,PAYLOAD,2023-06-17 21:40:09,14.98315974,0.000331,69.9996,235.0803,259.3712,100.7074,-3.1448e-05,-4.68e-06,0.0,0 STARLINK-5072,1 55758U 23028T   23168.90288878 -.00000468  00000-0 -31448-4 0  9999,2 55758  69.9996 235.0803 0003310 259.3712 100.7074 14.98315974 16880,6950.236,96.108,574.402,569.801,0.0
55758.0,STARLINK-5072,PAYLOAD,2023-06-18 04:04:41,14.9832701,0.0003299,69.9994,234.4065,266.3132,93.765,-0.00010618,-1.36e-05,0.0,0 STARLINK-5072,1 55758U 23028T   23169.16992496 -.00001360  00000-0 -10618-3 0  9993,2 55758  69.9994 234.4065 0003299 266.3132  93.7650 14.98327010 16921,6950.202,96.107,574.36,569.774,0.0
55758.0,STARLINK-5072,PAYLOAD,2023-06-18 10:29:13,14.98328124,0.000341,69.9993,233.7333,267.5009,92.576,-8.9394e-05,-1.16e-05,0.0,0 STARLINK-5072,1 55758U 23028T   23169.43696411 -.00001160  00000-0 -89394-4 0  9997,2 55758  69.9993 233.7333 0003410 267.5009  92.5760 14.98328124 16961,6950.199,96.107,574.434,569.694,0.0
55758.0,STARLINK-5072,PAYLOAD,2023-06-18 22:00:00,14.9832619,0.0003378,70.0004,232.5233,266.1844,160.7205,0.00049187,5.78e-05,0.0,0 STARLINK-5072,1 55758U 23028T   23169.91667824  .00005780  00000-0  49187-3 0  9991,2 55758  70.0004 232.5233 0003378 266.1844 160.7205 14.98326190  1303,6950.205,96.107,574.417,569.722,0.0
55758.0,STARLINK-5072,PAYLOAD,2023-06-19 00:00:00,14.98302537,0.0003435,70.0004,232.3132,264.7521,251.5301,0.0053137,0.00063846,0.0,0 STARLINK-5072,1 55758U 23028T   23170.00001157  .00063846  00000-0  53137-2 0  9990,2 55758  70.0004 232.3132 0003435 264.7521 251.5301 14.98302537 17042,6950.278,96.109,574.53,569.755,0.0
